[{"OBJECT_NAME":"STARLINK-2618","OBJECT_ID":"2021-044BH","EPOCH":"2026-03-09T06:58:05.889216","MEAN_MOTION":15.30196275,"ECCENTRICITY":0.00013813,"INCLINATION":53.1605,"RA_OF_ASC_NODE":77.1185,"ARG_OF_PERICENTER":92.9326,"MEAN_ANOMALY":267.1833,"EPHEMERIS_TYPE":0,"CLASSIFICATION_TYPE":"U","NORAD_CAT_ID":48693,"ELEMENT_SET_NO":999,"REV_AT_EPOCH":26430,"BSTAR":8.721502e-6,"MEAN_MOTION_DOT":-1.01e-6,"MEAN_MOTION_DDOT":0},{"OBJECT_NAME":"SSC","OBJECT_ID":"1983-008H","EPOCH":"2026-03-09T22:25:23.890656","MEAN_MOTION":13.80329728,"ECCENTRICITY":0.07175979,"INCLINATION":63.3051,"RA_OF_ASC_NODE":276.7319,"ARG_OF_PERICENTER":134.8771,"MEAN_ANOMALY":231.29,"EPHEMERIS_TYPE":0,"CLASSIFICATION_TYPE":"U","NORAD_CAT_ID":13874,"ELEMENT_SET_NO":999,"REV_AT_EPOCH":33794,"BSTAR":0.00063857039,"MEAN_MOTION_DOT":5.119e-5,"MEAN_MOTION_DDOT":0}]
